{"type":"FeatureCollection","features":[{"type":"Feature","properties":{"layer":"DP_1550","label":"Metro network (index)","confidence":"medium","TYPE":"Metro"},"geometry":{"type":"Polygon","coordinates":[[[72.85356434257753,19.107312918577108],[72.85311889927338,19.107534795308617],[72.85306439718157,19.107858834048773],[72.85468993362082,19.115489209332182],[72.85515321009898,19.119381687067293],[72.8561506214207,19.1240267447533],[72.85492451598805,19.12696309056839],[72.8543633672224,19.141132209300995],[72.85555412566534,19.14530511423588],[72.85624558894652,19.153573132297904],[72.85817612309057,19.16710677774471],[72.85893895292612,19.174392255365326],[72.85804150108264,19.17841326809043],[72.85785641565396,19.19103686630623],[72.85805506241833,19.191855570996516],[72.85962904406219,19.194834721618157],[72.86108279679151,19.201684746635127],[72.8616139279862,19.20248832724491],[72.86688290917637,19.207964004917002],[72.86765135408828,19.20929636166585],[72.86799857957885,19.210995064288937],[72.86760122069096,19.213638219073296],[72.86289616828016,19.227112936363394],[72.86279856678826,19.236274940670622],[72.86438595386932,19.247059103292607],[72.86494276753164,19.248758995857127],[72.87155949436007,19.25873731039807],[72.87200826058027,19.258966579398727],[72.87241776942312,19.25867856192353],[72.87229758142108,19.258141148950415],[72.86567898326935,19.24805785940258],[72.86532712044742,19.246927885351756],[72.86374928851879,19.236238670415148],[72.86383381587092,19.22726889092863],[72.86850429733906,19.21392123924427],[72.86890044001063,19.212305131281216],[72.8689478823131,19.210944591984894],[72.86854192542664,19.208979498429734],[72.86767541792743,19.207464617511025],[72.86195715120923,19.201328115737915],[72.86055716182535,19.194636705631424],[72.85880395615719,19.190959024409423],[72.85900907275789,19.178155487994005],[72.85988980673957,19.174404732674066],[72.85912027343883,19.167002642461377],[72.85719158035417,19.153485781600278],[72.8565003349529,19.14521215556923],[72.85528620862137,19.140771219261715],[72.85585471698018,19.127152333043263],[72.85694312574822,19.124936098417464],[72.85708362434497,19.12364552470363],[72.85609302984653,19.11924795784326],[72.854992080865,19.1120533949304],[72.85399299987625,19.107667643857194],[72.85356434257753,19.107312918577108]]]}},{"type":"Feature","properties":{"layer":"DP_1550","label":"Metro network (index)","confidence":"medium","TYPE":"Metro"},"geometry":{"type":"Polygon","coordinates":[[[72.83096068600517,19.127619846173513],[72.83048998732068,19.127977808257807],[72.83049784948433,19.128653010960914],[72.83154673101315,19.1354604068282],[72.8307938646803,19.145203330512143],[72.83109728120087,19.14577565651346],[72.83174054087173,19.146233318598956],[72.83546309992705,19.146641831714774],[72.83584622477585,19.14687982218185],[72.83597740393627,19.147311554155557],[72.83473523843548,19.155481635580852],[72.83473325863282,19.158934939840854],[72.83423576045502,19.161938827213135],[72.83486142469627,19.17021387170876],[72.83670723528513,19.175731699055657],[72.83544456055225,19.181857172610552],[72.83505677250135,19.188870355525278],[72.833182948975,19.1953112838364],[72.83352531308343,19.202400684720256],[72.83511720542376,19.211112169536843],[72.83672386899167,19.214101324781662],[72.8388980410789,19.216357221599267],[72.84011290081986,19.219000793965495],[72.8404055380248,19.220649210782582],[72.84048148367098,19.229883453072883],[72.84006009503108,19.234768841076693],[72.84022159262923,19.236190630484685],[72.84132445799794,19.238665653433866],[72.84393350642073,19.241670574932357],[72.84443185497258,19.24265206104023],[72.84485585691338,19.24430356969554],[72.84485710184794,19.24826566406648],[72.84565029881382,19.251366714076628],[72.8476320072833,19.254587327631388],[72.85007463136654,19.256834123774578],[72.85300911452487,19.258531763683663],[72.85566006393242,19.259026914994937],[72.86319001520147,19.258372561589137],[72.86648815595333,19.257517672591543],[72.86906371701033,19.25621937971871],[72.86966641227275,19.2553390829672],[72.86957519803757,19.254718521540656],[72.8689980214231,19.254675833341658],[72.86838351637668,19.255584521044963],[72.86705838119482,19.2563520550746],[72.86304669662749,19.257478251519867],[72.85568101677075,19.258123479876563],[72.85257056558966,19.257360353375724],[72.84963798677946,19.255260700435667],[72.84762428133192,19.253045440668245],[72.84633742124214,19.250477019969253],[72.84580383666037,19.248179942562416],[72.84580642887056,19.244269051577348],[72.84532547658549,19.242342561981403],[72.84473444290886,19.241182852585204],[72.84214978144968,19.238215960547922],[72.841160232401,19.236043081610312],[72.84101122023061,19.234784566480958],[72.84143238638264,19.229881960843432],[72.84135531064749,19.220587923843446],[72.84105497079406,19.218873564142168],[72.83968575802568,19.21584845677393],[72.83751321814593,19.21359739048488],[72.83602628279056,19.210846007961372],[72.83450944992128,19.20263899083932],[72.83411912206931,19.19592606260179],[72.83421189974233,19.194947838982497],[72.83599815637682,19.188998592718104],[72.83638424905038,19.181998086816538],[72.83765349041668,19.175825130860343],[72.835788190249,19.170006699750388],[72.83518615414623,19.16193032967162],[72.8356844829152,19.15895480611408],[72.83568898385725,19.1555097009572],[72.83692005377299,19.147093312980573],[72.83662653631808,19.146363897197123],[72.83600411990513,19.145870372813892],[72.83227225930678,19.145442591858185],[72.8317138542203,19.144976896945007],[72.83249481095827,19.135191031356108],[72.83142924100926,19.128047458069826],[72.83096068600517,19.127619846173513]]]}},{"type":"Feature","properties":{"layer":"DP_1550","label":"Metro network (index)","confidence":"medium","TYPE":"Metro"},"geometry":{"type":"Polygon","coordinates":[[[72.83535403224157,18.93804347779126],[72.8347606053938,18.938003795172776],[72.83441458073709,18.9393275274408],[72.83406364940076,18.942657127203322],[72.83298463022247,18.948096239924133],[72.83187247155982,18.95149468125627],[72.83164900683958,18.956679733770187],[72.83115384713366,18.957499300360237],[72.8289196481647,18.959042312873702],[72.82809352900479,18.960783921385325],[72.82817132470723,18.966110838536224],[72.8273725495335,18.971756306165766],[72.82764156894889,18.973203989196396],[72.8288246177154,18.97462989216859],[72.83037355395999,18.975261115300327],[72.83861247694944,18.976708867560703],[72.84223062055283,18.976775953976524],[72.84355223523004,18.977047709072547],[72.84669906104233,18.978781884785075],[72.84798127941282,18.979864685542367],[72.84969351734077,18.98300695389647],[72.85400833897636,18.992506360604548],[72.8539912921977,18.993217853471304],[72.85293780171997,18.995371013149207],[72.85279101556118,18.996466149392177],[72.85421801673438,19.00050775010686],[72.85764592014189,19.00456787184877],[72.86081850651098,19.00946166645066],[72.8626486740205,19.014916572094958],[72.86353670115007,19.015648404963798],[72.86402366807518,19.016501236732548],[72.86485673744062,19.019253709593148],[72.86663189712132,19.02140606224585],[72.86866297704289,19.0222926702009],[72.87003637388014,19.023415830425478],[72.87041216088147,19.024113944360668],[72.87083403344373,19.026702730811163],[72.87185235044981,19.026478186729467],[72.87111733018426,19.023163064596226],[72.86969246675804,19.0217888111779],[72.86729679668376,19.020646383545337],[72.86576236165703,19.018762790356963],[72.86492400274403,19.015999497792095],[72.86431354126167,19.0151104351602],[72.86351311791782,19.01453978811203],[72.8617662788915,19.009033655030954],[72.85858727433923,19.00414771462616],[72.85505204975198,18.999867821393206],[72.8538269083305,18.996353713382153],[72.85392548756398,18.99561695182934],[72.85488322273306,18.993529311817266],[72.85494078599636,18.99233090007913],[72.85252142727748,18.986766464817038],[72.84883947803777,18.979301288375],[72.84737103108758,18.9780208267265],[72.84389753476505,18.976116983015157],[72.84234569059385,18.975795590228387],[72.8389711869677,18.975720838800843],[72.83346203129551,18.975054701194424],[72.82977178442471,18.97418876434183],[72.8288772570366,18.973520566773995],[72.82848135995773,18.97290084748095],[72.82826996451064,18.971794340962674],[72.82905932076015,18.966371388842965],[72.82897786939262,18.960934860166656],[72.82960355082699,18.95959362258677],[72.83158587004252,18.95827306124773],[72.83234538838181,18.957351049300136],[72.8326032977215,18.95639316606184],[72.83295808697575,18.951727552511443],[72.83387497459084,18.948828941342637],[72.83505976175377,18.943013586850096],[72.83566529364322,18.93807438515082],[72.83535403224157,18.93804347779126]]]}},{"type":"Feature","properties":{"layer":"DP_1550","label":"Metro network (index)","confidence":"medium","TYPE":"Metro"},"geometry":{"type":"Polygon","coordinates":[[[72.827569940662,19.197935432009224],[72.82760559088509,19.1982017185373],[72.82919951262858,19.19714549303932],[72.82985169830498,19.19708796798875],[72.83334708907269,19.198978282226577],[72.83335669938462,19.19855722876008],[72.82995600575765,19.19683426916453],[72.8290479750661,19.19693901042512],[72.827569940662,19.197935432009224]]]}},{"type":"Feature","properties":{"layer":"DP_1550","label":"Metro network (index)","confidence":"medium","TYPE":"Metro"},"geometry":{"type":"Polygon","coordinates":[[[72.92250989299153,19.04326403640564],[72.91430349909432,19.045109847836986],[72.90936101532876,19.0453213549865],[72.90863053234627,19.04572074938971],[72.90391780400093,19.05028022675295],[72.9029722861172,19.0508933971348],[72.89530584683871,19.053530502850148],[72.88980991391144,19.053638363533768],[72.8889272087765,19.053962735951437],[72.88368662252937,19.06101267157031],[72.88345854874342,19.061679815790566],[72.88377543905803,19.0627702605104],[72.88600977002122,19.06480410737238],[72.88640335790791,19.06589878203327],[72.88731312383577,19.067219877430034],[72.8872797980495,19.067834026407617],[72.88487176122402,19.070889467169504],[72.88309387958098,19.07266474772768],[72.88039244566372,19.073640307408688],[72.87605953896137,19.075929809329967],[72.8722834888588,19.074206640923038],[72.87192357821007,19.073438107023748],[72.87203040167064,19.071497960599725],[72.87134504144717,19.070419388243007],[72.86087155169344,19.06388644492172],[72.86025683828392,19.06316240801552],[72.85973256954384,19.061494803854345],[72.85930623388457,19.060860649728532],[72.85579544309049,19.05955344918517],[72.84866481454529,19.052702876260838],[72.84775362631324,19.05229661055409],[72.84396307190298,19.051732318709238],[72.83977954031074,19.050022400185554],[72.8389763927272,19.05004112173453],[72.83830422615262,19.05039511967965],[72.83781081015806,19.051195438077762],[72.83718871727807,19.054891726953837],[72.83635543855925,19.056450969393342],[72.83616643298598,19.057455670553402],[72.83682006515953,19.062364921702844],[72.83680387648322,19.068253122076364],[72.83786564203912,19.090880865175873],[72.83908710275985,19.094136531896616],[72.83897392833023,19.100607933114265],[72.8387275389395,19.10115899953448],[72.83688457524227,19.10209644635425],[72.83640881679138,19.10291651785579],[72.83639476386726,19.107807800664986],[72.8368637326986,19.11183927330583],[72.83621022501143,19.11373849055227],[72.83548708846887,19.11461318483538],[72.83438842255735,19.115295791475795],[72.8331117248761,19.11558535881727],[72.8304967686742,19.115679471521947],[72.82976168996747,19.116080634596766],[72.82938405947694,19.116632708942976],[72.82935256326398,19.12131277600467],[72.83053377409452,19.12566943623435],[72.83061468636984,19.128386732155747],[72.83104169079593,19.128515368385518],[72.83140276464579,19.128221852059017],[72.83149752662257,19.125846217466577],[72.83032009556345,19.121418300068836],[72.83034231390835,19.11682032187014],[72.8307512180811,19.116549765214206],[72.83338301252164,19.116469844212226],[72.8347717536432,19.11612221900782],[72.83598808219226,19.11539891789554],[72.83702930277819,19.114196283295907],[72.83761373402764,19.1129884600466],[72.83781211245673,19.11190829098024],[72.83734683868384,19.107822529972577],[72.83733646391492,19.103114504002253],[72.8376063440047,19.10270815772039],[72.83943927728454,19.10176224828601],[72.83991176680627,19.100794236862605],[72.84002915799834,19.09400270333587],[72.83880969562632,19.090776420573548],[72.8377513330135,19.068171674955092],[72.83776154670277,19.06218161543426],[72.83711632662313,19.05747939923983],[72.83728933696958,19.056661053537095],[72.8381004778868,19.05515034127392],[72.83896053601964,19.05104812454349],[72.83960340067537,19.050911684138356],[72.8438145774211,19.052632352235232],[72.84740812650267,19.053149790013684],[72.84814229579027,19.053459157824808],[72.84987155972613,19.055337561952317],[72.85523867733333,19.060286017829373],[72.85624007837838,19.060816690933617],[72.8586540719005,19.06151732829463],[72.85940392421641,19.06356015926259],[72.86022752186621,19.064552188303615],[72.8707315291576,19.071110062642358],[72.87113743482027,19.071916039597845],[72.87103455718763,19.07382501374532],[72.87179542024161,19.075026724648684],[72.87524749556782,19.076707300090145],[72.87617126748363,19.076827164922722],[72.88080175510126,19.07445537506969],[72.88365345868533,19.07339462209929],[72.88559445539752,19.071475724190485],[72.8881397554249,19.068220928935173],[72.88824296223804,19.066993885897176],[72.8872294546142,19.06545163758623],[72.88681343781057,19.064316944908754],[72.88459838163016,19.062298207272804],[72.88441673237071,19.061686573826513],[72.88958831481705,19.054624910574535],[72.89542061440659,19.054432613046117],[72.90330822118712,19.051740108253178],[72.9045530962132,19.05095217983913],[72.90960980736206,19.046194272897495],[72.91433909856109,19.04601968313327],[72.92225222493131,19.044185496932364],[72.92332310861856,19.044422677241222],[72.92874671167361,19.048302861817447],[72.9314231210586,19.049055211913274],[72.9361164480214,19.051115438710756],[72.93690129385709,19.051129561014257],[72.93777312554332,19.050798358549525],[72.94032220291903,19.048325095924376],[72.94009096725702,19.04790183462431],[72.93964365873634,19.047882908471028],[72.93729938882967,19.050010832810177],[72.93642334589134,19.050252932470674],[72.93166604530116,19.048174937387365],[72.92925059781714,19.047533103046614],[72.92379823546487,19.043637540794908],[72.92250989299153,19.04326403640564]]]}},{"type":"Feature","properties":{"layer":"DP_1550","label":"Metro network (index)","confidence":"medium","TYPE":"Metro"},"geometry":{"type":"Polygon","coordinates":[[[72.85345398289628,18.99858946190802],[72.85312646682195,18.99771245130599],[72.85052651965506,18.99799357313219],[72.84498191999414,19.000597021728158],[72.8434537513297,19.001544782244217],[72.84021389436731,19.004473747341287],[72.8328946104315,19.009014097491782],[72.83147698279534,19.01105868323995],[72.83050711375758,19.01350871219721],[72.82899628849675,19.01585306948558],[72.83033611083412,19.01551937725207],[72.8313518092781,19.013923095112737],[72.8323156967647,19.01148394805432],[72.83353571802014,19.009685588992216],[72.84077518526676,19.005202321524244],[72.8440258558409,19.002265804616076],[72.85024071031756,18.999066417287995],[72.85140913198649,18.998722818005],[72.85345398289628,18.99858946190802]]]}},{"type":"Feature","properties":{"layer":"DP_1550","label":"Metro network (index)","confidence":"medium","TYPE":"Metro"},"geometry":{"type":"Polygon","coordinates":[[[72.85601351027022,19.102772904099375],[72.85963780478536,19.10239355501111],[72.86186052734412,19.10105133979338],[72.86330267331171,19.10062757715483],[72.86466126848883,19.10068499692282],[72.86807203890834,19.101622634835785],[72.87568755956681,19.101619436296797],[72.87740955398264,19.101232551922106],[72.87887695622287,19.10059716373428],[72.87916377657767,19.10019732224002],[72.87873444085413,19.09973289188494],[72.8758061052167,19.100705952452426],[72.8685120248687,19.100746007871052],[72.86699287616976,19.10052080153384],[72.86491763888804,19.09981367447006],[72.8634373729305,19.099708470201154],[72.86153172463962,19.100197285809184],[72.85943824232723,19.101507447429135],[72.8553030359218,19.10197917925874],[72.8544859561468,19.102449158652668],[72.85390319612227,19.103348295467246],[72.85303769195022,19.10712828420145],[72.85309232278757,19.107941750963967],[72.85333914548653,19.108177329162142],[72.85395155071728,19.107969071401918],[72.85489214974262,19.1034227463454],[72.85530342956554,19.102978237482976],[72.85601351027022,19.102772904099375]]]}},{"type":"Feature","properties":{"layer":"DP_1550","label":"Metro network (index)","confidence":"medium","TYPE":"Metro"},"geometry":{"type":"Polygon","coordinates":[[[72.88099565646918,19.131317681281438],[72.87824583676037,19.131235937181586],[72.87743390919064,19.130744464575592],[72.87128205471068,19.12203533112476],[72.87100558647944,19.12107473955039],[72.87110259606793,19.119683379409004],[72.87184125701904,19.11860936936966],[72.87263371107048,19.118156198803653],[72.87634892389256,19.117079573921128],[72.87736176710095,19.116317769509262],[72.8779091820676,19.11543350574279],[72.87808273636624,19.11270897321098],[72.87891308714512,19.110200258436464],[72.8793276086705,19.105069869956473],[72.87916933507347,19.10398832239167],[72.87858608699484,19.10297193062946],[72.87741529188233,19.102112689073827],[72.87643179085208,19.10184858072436],[72.86249590790942,19.10162781690947],[72.85891498716546,19.100431269878342],[72.85754080828275,19.0992092751708],[72.85664522631025,19.095892478213848],[72.85590144280856,19.094849033356713],[72.85240640835404,19.092722797256023],[72.84830053289969,19.09064116887702],[72.84730007181417,19.08966447119212],[72.84666130980307,19.088429501208275],[72.84649320582486,19.086409900978772],[72.84769828629356,19.082082429270443],[72.84764752621096,19.074132143773653],[72.85685656776273,19.057407967836593],[72.85679219586895,19.056373262080754],[72.8534972393712,19.04783175296861],[72.85277931667456,19.0468841309017],[72.85170754755981,19.04626004033771],[72.8468403162415,19.04513734668567],[72.8441716110119,19.044971662333335],[72.84207322271148,19.044408258667907],[72.84119675156226,19.043764357260038],[72.84091363513083,19.042541731146898],[72.84235705581507,19.039303392784028],[72.84275842485894,19.037738847465064],[72.84283349500261,19.033454382856196],[72.84102279183665,19.02492660537361],[72.83766941458428,19.020910315207026],[72.83644381409265,19.018750292187196],[72.83566451405646,19.016791888227893],[72.83483726637958,19.015813764815334],[72.8324763170583,19.01503765329441],[72.82910659105782,19.015852604778182],[72.82818451902313,19.015775312514354],[72.82516194783005,19.013326969033763],[72.82186454058237,19.01146861782111],[72.82093318832148,19.010426333248233],[72.8189572428896,19.007031378609277],[72.81823386573703,19.005101195334014],[72.81618541744183,19.00257124086883],[72.816389971569,19.00126648717142],[72.81716458417571,19.000195888202207],[72.82479765990392,18.98561609567725],[72.82640467661713,18.983594574128876],[72.82705322233069,18.98203413782933],[72.8266948879753,18.980392606267905],[72.82456577868753,18.97782980414532],[72.82363993741332,18.97429554823693],[72.82237764329645,18.971923818602345],[72.82129139968498,18.96882129783463],[72.81915781308625,18.964867848648765],[72.81780308459885,18.96131933239111],[72.81771311481376,18.959154212745016],[72.81727132788717,18.95776276860778],[72.81730999343604,18.95696081932434],[72.81794377667632,18.956087236977382],[72.81962549123291,18.955287447971287],[72.82168943264475,18.953510736376476],[72.82619543879983,18.948658439042486],[72.82991185988703,18.942992118328394],[72.83398575859,18.939872581482817],[72.83459051496139,18.938965145921987],[72.83476149118287,18.938065483992574],[72.83432577478338,18.935886965438936],[72.83207243420556,18.932820635830765],[72.83080037028093,18.93221810753469],[72.82893927249745,18.93221111847577],[72.82790754587991,18.93182455716039],[72.82531475426123,18.92883382671281],[72.82497607618403,18.927990085533523],[72.82504300120374,18.927150050441696],[72.8269483777078,18.922427963607497],[72.82686890225439,18.921405994485394],[72.82609430607455,18.919079248535976],[72.82330871260403,18.915521014736992],[72.81795485953951,18.909825291565852],[72.81746230475848,18.90970507230322],[72.81719319199242,18.909917079578914],[72.81722526506385,18.910400067822184],[72.82259073805567,18.916112187372278],[72.82520103058663,18.919384693441568],[72.8260070867497,18.922309628235592],[72.82405947390724,18.92718381533186],[72.82403229532272,18.928088770261823],[72.82442764536424,18.929187293690074],[72.82682335718691,18.93210261152816],[72.82759813635688,18.93271034744056],[72.82880096873859,18.933105093945397],[72.83044394208778,18.933077954244542],[72.83142258204667,18.93347943155404],[72.83345389700155,18.9362446902173],[72.83381208259716,18.938045272736137],[72.83332825743578,18.939220550214255],[72.82916140586406,18.94243815705989],[72.82546850894575,18.94807723459328],[72.82104718826399,18.952844911057895],[72.81909580707892,18.95453724164317],[72.81739781427825,18.955347200449843],[72.81641706047252,18.956651608890915],[72.81633111652376,18.957895029997175],[72.81676823006396,18.959246171740997],[72.8168746500405,18.96151186288011],[72.81827320480376,18.96519625477134],[72.82041076443804,18.96915982952026],[72.82148426301174,18.972229694291578],[72.82275627912095,18.974626278069255],[72.82368319512155,18.978163463563572],[72.82586694451928,18.980836830271155],[72.8261139570716,18.98189153954446],[72.82558932337253,18.98313144200862],[72.82399207737888,18.985137408710546],[72.81634135880064,18.99974447425122],[72.81559142529764,19.00077749085995],[72.81518925736245,19.001937341261026],[72.81525601318096,19.00276002805617],[72.8157938508285,19.003791477055714],[72.81737847753162,19.005494827364263],[72.81810135912266,19.007422847362523],[72.81978545744781,19.0103412543586],[72.82120976702141,19.012123088735986],[72.82461844492262,19.014067824363234],[72.8278224445695,19.016610835520677],[72.82924218880228,19.01674676774414],[72.83244150194939,19.01594084781633],[72.83425175298784,19.01652561081965],[72.83479382006475,19.0171559429164],[72.8355808279743,19.01912753912255],[72.83687063862924,19.02139890515839],[72.84016516363708,19.025315520844032],[72.8418839434233,19.03348023608581],[72.84172324395273,19.038093617083018],[72.8399866911691,19.042336311744815],[72.84002093577222,19.043444754171258],[72.84063717822403,19.044547062498065],[72.84171860522683,19.045246754381076],[72.843930193426,19.04584534122046],[72.8466779365461,19.04602736454458],[72.85135078115599,19.047097834966348],[72.8521150635151,19.047530224322553],[72.85261911425862,19.048177825020723],[72.85572648642292,19.056193115812935],[72.85591903709005,19.057259391861624],[72.84673629375656,19.073875629912177],[72.84674804344948,19.08207587733892],[72.84554094966524,19.086365660534938],[72.8458005495668,19.088834373529753],[72.84650048166854,19.090153624015482],[72.84769643819104,19.091339234843147],[72.85191235322836,19.0934943160424],[72.85545914923118,19.09571135332504],[72.85664689692771,19.099535750985385],[72.85745149132254,19.10055112721291],[72.85840809734064,19.101199945996797],[72.86241162627753,19.102529768709147],[72.87630005127342,19.10274381516333],[72.87699707755483,19.102924479579013],[72.87783877113336,19.10353044293409],[72.87825797805246,19.104245534105115],[72.87837742169181,19.10503609533084],[72.87797294402873,19.110067712792386],[72.87714869502584,19.112543157559816],[72.877023338223,19.115106667477193],[72.87600137477651,19.116232612829677],[72.87229408317765,19.117312368884892],[72.87122499140654,19.117921425602862],[72.87020543111132,19.119385184447726],[72.87011043906742,19.12160757871976],[72.87045518135947,19.12248114116759],[72.87691744694175,19.131542775283698],[72.87824697841523,19.132154342296573],[72.88067014911705,19.13207379455931],[72.88108512895532,19.131793827294583],[72.88099565646918,19.131317681281438]]]}},{"type":"Feature","properties":{"layer":"DP_1550","label":"Metro network (index)","confidence":"medium","TYPE":"Metro"},"geometry":{"type":"Polygon","coordinates":[[[72.82378207938675,19.130185805180407],[72.84044103798173,19.12665011485823],[72.8416071953261,19.12590811022531],[72.84258192517403,19.12435160216401],[72.84642429792368,19.122427173790353],[72.85747420143565,19.11572157719188],[72.861000220075,19.115102137377345],[72.86503333131874,19.113205805701035],[72.87298253629976,19.11102776086221],[72.88103775748557,19.10807409794877],[72.88309375654421,19.107871856603015],[72.88414941468076,19.107527153507256],[72.88670133141989,19.1048844160548],[72.88889982847604,19.10345676289157],[72.89104556228021,19.101694676549936],[72.89325986912766,19.0982899081774],[72.89427280549288,19.097318240524043],[72.89930556422767,19.094163737386992],[72.90129324867574,19.093405741039266],[72.90311817424606,19.09237182940755],[72.90497995367953,19.09164767649938],[72.90697946446757,19.091689977705457],[72.90780532807408,19.091282741910614],[72.90822700460495,19.090452313389623],[72.90843359199881,19.08577491810607],[72.90802584571888,19.08548539132987],[72.90751928555429,19.08587290803196],[72.90745589606456,19.08879539820868],[72.907058140226,19.09070844633432],[72.90491270771865,19.090737989737242],[72.90271008985341,19.091555922044723],[72.90084470562972,19.0926093117807],[72.8988729149142,19.093358284573416],[72.89368515542296,19.09660759606068],[72.89252285832305,19.097716837928665],[72.89037513674943,19.101052704992497],[72.8860003439571,19.10427001659272],[72.88374208115772,19.10670999297086],[72.88069190204132,19.107230654321643],[72.87267189051933,19.110174144803832],[72.86463612585447,19.11238237206257],[72.86078479117505,19.11421943554541],[72.8570336133967,19.114919977595175],[72.84593605218932,19.121652250487077],[72.84212523451446,19.123556214175917],[72.84154373723142,19.124101142922054],[72.84086816866747,19.125338275910135],[72.8400854269734,19.125812405964762],[72.83653118632364,19.126658173203182],[72.83438119122314,19.12686150772282],[72.819945229596,19.130110167676957],[72.81831604312886,19.129622239282646],[72.81781748619275,19.130019359303287],[72.81803720752458,19.130455922082813],[72.81978684314815,19.13102387557133],[72.82378207938675,19.130185805180407]]]}},{"type":"Feature","properties":{"layer":"DP_1550","label":"Metro network (index)","confidence":"medium","TYPE":"Metro"},"geometry":{"type":"Polygon","coordinates":[[[72.93703452729528,19.124245404894722],[72.92574676174145,19.124846987001046],[72.92254686817589,19.1253540735283],[72.92160087352302,19.125924721571074],[72.92073407115308,19.12784043835788],[72.92007686921042,19.12811364318121],[72.91954948470573,19.12787048710474],[72.91658281021037,19.124668690205205],[72.9118325632377,19.123339953490248],[72.90924047763323,19.123556318648827],[72.9087889294315,19.122934424044022],[72.90850622358532,19.121314038287057],[72.90787397275976,19.12059375046685],[72.90597252043577,19.11956148319169],[72.90421668111254,19.11901439545494],[72.90330278761128,19.118986158738956],[72.89944699498358,19.1202295453435],[72.89784607494553,19.123142697223603],[72.89704749628316,19.123937128846485],[72.89594687733583,19.124353166223504],[72.89351744874524,19.124589266111677],[72.89104721559164,19.125452258662005],[72.88618428676044,19.128701000258335],[72.88046026474115,19.12908239639537],[72.87729024600807,19.129639218600126],[72.87567378216714,19.13028589997067],[72.87452013292172,19.131501219473755],[72.87404596059504,19.134099093519968],[72.87258852672934,19.13692007634643],[72.8712427547642,19.13823292299253],[72.86935932971753,19.139120221535098],[72.8674764522607,19.139310312089904],[72.86506800398385,19.13865854512984],[72.86313206728713,19.13847145623187],[72.86024469530209,19.139063795120453],[72.85774229920847,19.140347097815354],[72.85688250339174,19.140544290179744],[72.85322182190608,19.139988694834454],[72.84966947512393,19.1388648935264],[72.84544034462812,19.139411251652934],[72.84333026912843,19.13903808207726],[72.84132737922292,19.139789495254153],[72.83913514659362,19.1400888966157],[72.83642740055534,19.14109145402205],[72.83189469531916,19.14142045545699],[72.82869275588202,19.141235282174236],[72.82533197633161,19.139048746973323],[72.82408291294213,19.138840248756765],[72.82295441224223,19.139304072446436],[72.8191605063627,19.143572622974666],[72.81944769640637,19.143963735198167],[72.81989403176826,19.14392729725558],[72.82362908930617,19.139942291350035],[72.82421475218834,19.139735013694708],[72.82495564659827,19.139881293055804],[72.82836978073132,19.142084741092535],[72.831790636323,19.14232277113005],[72.83663758708981,19.141972287968787],[72.83878640449042,19.14113958105357],[72.84175050317535,19.1406152861566],[72.84345030665679,19.139937506356098],[72.8453547303238,19.140319793458644],[72.849716187575,19.139782325836666],[72.85299821150991,19.140866545213896],[72.85696976846084,19.141447556634002],[72.85808619244301,19.141194298241153],[72.86046026917072,19.139948597317307],[72.86314682684889,19.13937963801056],[72.8648730490876,19.13954253917123],[72.8673713139419,19.140207972443548],[72.869621994047,19.139988236614244],[72.87180492865228,19.138961138826843],[72.87342304350454,19.137360825759522],[72.87489745900763,19.13456680981051],[72.87532420378479,19.13201374837831],[72.87604463201426,19.131132648824305],[72.87753002619328,19.130513216393695],[72.88049254763725,19.129991757902296],[72.88545310467025,19.129779032900863],[72.88653267857227,19.129541473491223],[72.89146916249797,19.126262032773184],[72.8937629865022,19.125461830539372],[72.89617474876017,19.12523183743832],[72.89754990456602,19.12470398811898],[72.89858372704484,19.123726393739116],[72.90002512933563,19.120946670404855],[72.9035895022101,19.119861683727443],[72.90556489762092,19.12037826024361],[72.90746721423447,19.12142855014794],[72.90802876850039,19.12353614134775],[72.90885159017093,19.12438351995185],[72.91163694489703,19.124224510377747],[72.91614917324594,19.125474123984876],[72.91891562117787,19.128551022940734],[72.91971451953196,19.12897210838535],[72.92050660735154,19.128977564188627],[72.92118818149474,19.128673434268254],[72.92169650252758,19.12806674606535],[72.92231929777915,19.126517140613544],[72.92297813088229,19.12618056550451],[72.92580137706301,19.12574877760529],[72.93752262383707,19.125213046648174],[72.93843120995079,19.12594012502695],[72.93919117476784,19.127690079052044],[72.94188750050039,19.132388439586876],[72.94256388499996,19.132550488995843],[72.94272163722162,19.13195566963836],[72.93917433529137,19.125362045696427],[72.9382494112892,19.124528417644765],[72.93703452729528,19.124245404894722]]]}},{"type":"Feature","properties":{"layer":"DP_1550","label":"Metro network (index)","confidence":"medium","TYPE":"Metro"},"geometry":{"type":"Polygon","coordinates":[[[72.87749740483336,19.042997622586967],[72.87824113778083,19.043999547942114],[72.8782095293562,19.044734220197054],[72.87670849431133,19.04759145756082],[72.87537425292997,19.04818160407071],[72.87519361538511,19.04842081387771],[72.87529730229515,19.048852280689523],[72.87571614923293,19.048994575476108],[72.87655248282866,19.048782019270018],[72.87748602808658,19.048101812899162],[72.87801985669596,19.049578207611773],[72.8804644632938,19.05272147429128],[72.88558108769539,19.0556540973657],[72.89144600713465,19.06022571188425],[72.89874434046044,19.065302843641348],[72.90085840480006,19.070841172011843],[72.90265385288819,19.074123553957275],[72.90363220336887,19.074682109127526],[72.90637791015355,19.07489040474896],[72.90754230705494,19.07554788756514],[72.90911190353162,19.07737878176357],[72.91077143269105,19.080708976813465],[72.91400492482184,19.084310816619986],[72.91789004703037,19.088144601571752],[72.9180007595885,19.088635186328514],[72.91748467779534,19.092613512788144],[72.91528846362664,19.09582632954528],[72.91516372024658,19.096886763133497],[72.92443171730662,19.10966812772318],[72.92545770604364,19.111965467857512],[72.92564537248916,19.116535362684203],[72.92480268114137,19.12340271846846],[72.92483408915443,19.128965709886863],[72.92818486548384,19.13524067473632],[72.9289477810962,19.1362458376072],[72.9315167990013,19.141584826718994],[72.93735607282981,19.148565948635564],[72.937023196605,19.15306388030524],[72.93727351804307,19.16468732917966],[72.94030191779503,19.172015309783195],[72.94062731803483,19.17406658773059],[72.94277682150603,19.177397668904252],[72.944767426517,19.179035803184473],[72.94631153279589,19.18185573538761],[72.94774514472718,19.18339787348161],[72.9483052879933,19.183646676434968],[72.95313322643204,19.18413914787514],[72.95568744944201,19.185931611239667],[72.95667766771541,19.18615648530792],[72.95733952593133,19.185321412878388],[72.95610420540734,19.18510870956044],[72.95353190216892,19.18331606528228],[72.95171819162091,19.18295131178936],[72.94849028608544,19.182756545447212],[72.94793255369576,19.182385414034652],[72.94713693624765,19.181406199343797],[72.94556971154357,19.178544073499484],[72.9435664832517,19.176893632740867],[72.94150917326004,19.173725690743183],[72.94124086292997,19.17186018057512],[72.93822116227719,19.164615929156135],[72.93796225353094,19.155407363999544],[72.93828044822433,19.14834938615442],[72.93232951690729,19.141115667814947],[72.92980180862878,19.135849320974522],[72.92901224539621,19.134795023123875],[72.92574278924704,19.12868844374713],[72.92575019623654,19.123472767628115],[72.92659417764865,19.11658593642494],[72.92637985647362,19.11174631146128],[72.92525687729474,19.109218465665386],[72.9197906445864,19.10142806285741],[72.91611944192019,19.096789498891077],[72.91617486609339,19.096159478821995],[72.91787056380795,19.09396820275321],[72.91842943849858,19.092759805825057],[72.91894363007927,19.088773551454576],[72.91873402271071,19.087724000604958],[72.91155136842382,19.08019304073808],[72.90999743939193,19.07702314334725],[72.90815936097249,19.074859845364436],[72.90655090580879,19.07399774014791],[72.90382742382661,19.07379798611197],[72.9033836231699,19.07354527037004],[72.90167550998545,19.070362672538877],[72.89988951625645,19.065391670884352],[72.89944251950828,19.06468990112539],[72.89211826386035,19.05957897215077],[72.88614099819046,19.05492447006686],[72.88078897164334,19.05172437037209],[72.87854659542838,19.048465323270914],[72.87852452477124,19.047829001663533],[72.87928476710657,19.04520940029354],[72.87899332386725,19.04319862859382],[72.87828135046244,19.042366739958723],[72.87492268810152,19.04099147077737],[72.87423900021807,19.040220706525496],[72.87411746671286,19.03551234215443],[72.87246119596182,19.03009948141827],[72.87185235044981,19.026478186729467],[72.87083403344373,19.026702730811163],[72.87144786456453,19.03032996855217],[72.87310668901839,19.035771457019393],[72.87304427850924,19.03956300286105],[72.87327150685762,19.040545691059222],[72.87434021883283,19.041769065370268],[72.87749740483336,19.042997622586967]]]}},{"type":"Feature","properties":{"layer":"DP_1550","label":"Metro network (index)","confidence":"medium"},"geometry":{"type":"Polygon","coordinates":[[[72.83470946273417,18.93750606840269],[72.8347606053938,18.938003795172776],[72.83566529364322,18.93807438515082],[72.83642335263605,18.93370601800664],[72.83601196142268,18.93003032871863],[72.83469864120586,18.928188518436727],[72.83418316938948,18.9263380714231],[72.83369637792019,18.92555900056483],[72.82886943939128,18.92185673780349],[72.82842955692523,18.921792593848508],[72.82809990979032,18.92210548774872],[72.82813454311416,18.922542560783334],[72.83296789670794,18.9262770431942],[72.83392765787619,18.92892111673309],[72.8350505816883,18.93041173276815],[72.8354150657095,18.93325650142024],[72.83470946273417,18.93750606840269]]]}},{"type":"Feature","properties":{"layer":"DP_34","label":"Metro corridor (by line)","confidence":"high","METRO_LINE_TYPE":"Metro Line 2A"},"geometry":{"type":"LineString","coordinates":[[72.83095479012661,19.128071399000344],[72.8320238347683,19.13533334962741],[72.83127289089688,19.145151420879152],[72.83203845940878,19.14585485113148],[72.83569561096239,19.146236649907387],[72.83620268542506,19.146579811295407],[72.83644611581074,19.147128574339472],[72.83520613435138,19.155543635110487],[72.83520161500547,19.15903380393285],[72.8347109636362,19.161935347396806],[72.83531682150915,19.170065670525066],[72.83717954106295,19.175791648137277],[72.83591208292057,19.181946518817323],[72.83554430600509,19.188837682441743],[72.83375060801785,19.194838956891996],[72.83364225073176,19.19590947007024],[72.83402020890212,19.202556437556584],[72.83527799964851,19.209986001190263],[72.83647300102434,19.212885001092122],[72.83763200093128,19.214470000522645],[72.83938200013381,19.216247000131595],[72.84046500136432,19.218505000695554],[72.8408799996191,19.220596000547364],[72.84095500030517,19.230050001274275],[72.84053500118344,19.234790000720253],[72.8408240009595,19.23659000002392],[72.84174500088945,19.238455000834346],[72.84432599961141,19.241413999917274],[72.84487500130933,19.242486999872177],[72.84533100080426,19.244274001227698],[72.84539600115907,19.248679000892963],[72.84648000038746,19.251953000462006],[72.84852600116582,19.254914000492594],[72.85199900066125,19.257583000027054],[72.85340700108641,19.258180000550812],[72.85568600011295,19.258575999772773],[72.86314500091322,19.257923000288468],[72.86744844379395,19.256675727802797],[72.86870447107312,19.255918084891512],[72.86925732062531,19.25505436767321]]}},{"type":"Feature","properties":{"layer":"DP_34","label":"Metro corridor (by line)","confidence":"high","METRO_LINE_TYPE":"Metro Line 7A"},"geometry":{"type":"LineString","coordinates":[[72.85352869888956,19.107763239422937],[72.85438304907619,19.103405815210973],[72.85487465183189,19.10272299839612],[72.85544454420604,19.10241098808493],[72.85955543121716,19.101945606217605],[72.86177447827717,19.100587042588174],[72.86333919692464,19.10016954718351],[72.86478362382255,19.100248077142876],[72.86696980561894,19.10098232676497],[72.86875636141163,19.1012031440708],[72.87586294644404,19.101154395748953],[72.87868898311744,19.10018242058032]]}},{"type":"Feature","properties":{"layer":"DP_34","label":"Metro corridor (by line)","confidence":"high","METRO_LINE_TYPE":"Metro Line 3"},"geometry":{"type":"LineString","coordinates":[[72.88822962291165,19.133039073921534],[72.8867872290541,19.13110505205923],[72.88622810510753,19.13084297304778],[72.87867550927182,19.131720554211565],[72.87744985068615,19.131376786548056],[72.87064067402405,19.12177658056889],[72.87056627190239,19.11984907536367],[72.87087483641274,19.11904613170808],[72.87152305841002,19.118273092512194],[72.87245280553242,19.117738020578855],[72.87614106017664,19.116673490330424],[72.87692532016972,19.116106049799118],[72.87746795961762,19.115266040134518],[72.87760432047597,19.112689800139968],[72.87844492892596,19.11012344811814],[72.87885392326814,19.10503546422162],[72.87870959333124,19.10410208893838],[72.87820336935233,19.103239474855343],[72.87718958030912,19.10251006156761],[72.8763468547355,19.102292904319377],[72.86249183005107,19.102084600024508],[72.85871522017372,19.100841080243956],[72.85782870533642,19.10026827123854],[72.85708022443241,19.0993506948916],[72.85618831142503,19.096016014185075],[72.85556147096158,19.095164439063776],[72.85215502048612,19.093105971406317],[72.84816471351263,19.09110470290762],[72.84659657205715,19.089445103504247],[72.8460824803531,19.088101533457078],[72.84597488249563,19.086839007327097],[72.84721571988723,19.082180203238796],[72.84718764616557,19.074016257423192],[72.85623192291233,19.05785787322837],[72.8563278403331,19.056467991365178],[72.85305161601521,19.047987851144818],[72.85243765887375,19.047197788898814],[72.85151227289995,19.04667169165009],[72.84707789688866,19.04564013057343],[72.84452407351837,19.04550142622562],[72.84191145480256,19.044834073610787],[72.84125178080733,19.0444824373991],[72.84063671106236,19.04374576714185],[72.84044116228873,19.04246726924251],[72.84191161297123,19.039146895380792],[72.84229153303835,19.03765644434783],[72.84228694591961,19.032744380784756],[72.84070256215912,19.025356493164185],[72.83707196822321,19.02085337238774],[72.8349109301876,19.016498230950948],[72.83420834754068,19.01596929875865],[72.83244142728906,19.015488025485894],[72.82918507509754,19.016298454889665],[72.82801827683146,19.016199444796268],[72.82488211418519,19.013691788246984],[72.82191137201917,19.01209060572713],[72.82053366381417,19.010671331660845],[72.8185328746137,19.007234521147158],[72.8177988421636,19.005282061160496],[72.81617465223799,19.003521788907932],[72.81572407093307,19.002684431331424],[72.81565732217874,19.002012883750023],[72.81597216832873,19.00104754532571],[72.81676280486376,18.999955321013438],[72.82438719578296,18.98538771255326],[72.82600251147976,18.983354647087342],[72.82658984856447,18.98193607368645],[72.82627045536168,18.98059484876323],[72.82412884941357,18.9780079479002],[72.82319454701896,18.974451721096816],[72.82193346387368,18.972083749988872],[72.82084587470179,18.968977083952577],[72.81871933723059,18.96504207938399],[72.81734245868682,18.96143551671942],[72.81723957780457,18.95918490402274],[72.81680350956199,18.95785123227314],[72.81685569361763,18.9568241111846],[72.81765218564789,18.955728458988336],[72.81937522335167,18.95490373930284],[72.82138098939676,18.95316750812027],[72.82583956065696,18.948359655175263],[72.82952573966456,18.942727554233333],[72.8336682638181,18.939536925751764],[72.83415156647727,18.938793463493777],[72.83428761467131,18.93804091925425],[72.83388523926436,18.93605490939698],[72.83197610934333,18.933366313475567],[72.83095692853749,18.932723147562392],[72.82888438504389,18.9326605299233],[72.82785669734774,18.932331667302293],[72.82492776480518,18.929096197156166],[72.82455972593,18.928317723191043],[72.8245213354045,18.92728752784464],[72.82647994360826,18.92235579437388],[72.82564506746714,18.91922469493199],[72.82294138105144,18.91580688946167],[72.81760906062033,18.910134523906123]]}},{"type":"Feature","properties":{"layer":"DP_34","label":"Metro corridor (by line)","confidence":"high","METRO_LINE_TYPE":"Metro Line 7"},"geometry":{"type":"LineString","coordinates":[[72.85352869888956,19.107763239422937],[72.8566089995372,19.12366600012045],[72.85650300053561,19.12476600056177],[72.85538399992926,19.127078000326215],[72.85481000087216,19.140776999897685],[72.85602600017691,19.145239000026432],[72.85671900063883,19.153534000372936],[72.85864799977219,19.167052999885847],[72.85941500093725,19.17438500120224],[72.85853600160702,19.178106000057447],[72.8583310016333,19.19101200114393],[72.86008999911328,19.194719999719553],[72.861527001612,19.201523999553995],[72.86727300111814,19.207704999605088],[72.86809300058253,19.209128000173607],[72.86847300095204,19.21096500096904],[72.86805600034242,19.21377100049445],[72.86336000061814,19.227212001007313],[72.86327400105792,19.236273000780503],[72.86485799935416,19.247004999473287],[72.86523199996961,19.248212000988136],[72.87197407699743,19.258516155513774]]}},{"type":"Feature","properties":{"layer":"DP_34","label":"Metro corridor (by line)","confidence":"high","METRO_LINE_TYPE":"Metro Line 2B"},"geometry":{"type":"LineString","coordinates":[[72.9398486957181,19.04829027102591],[72.93759566329932,19.050364129883384],[72.93622770712132,19.050672772764127],[72.93149150957446,19.048594951239426],[72.92901155025896,19.047925063540486],[72.92349202313619,19.043986676124014],[72.92225003328149,19.043729233898436],[72.91431055585119,19.045566656902142],[72.90949006489461,19.04575617427882],[72.90883512055187,19.046156675319608],[72.90415564050176,19.050686913452456],[72.90309099787704,19.051337337902833],[72.89525947674299,19.054003904369033],[72.88941771476307,19.05419953035019],[72.88393951891997,19.061658898233745],[72.8841287065786,19.062464028494215],[72.88642978024885,19.06459326126687],[72.88679719423376,19.065639164792177],[72.88780516923634,19.0671743317178],[72.88766017069361,19.068111191338705],[72.88528557882832,19.071120982550653],[72.88343449270016,19.072985852566582],[72.88055684922163,19.074066482755182],[72.87661755074188,19.076238834513624],[72.87596352479711,19.076383678108503],[72.8720891234621,19.074671810067322],[72.87148867941504,19.07368750431138],[72.87159924264132,19.071761125414515],[72.87107738624641,19.070798957802488],[72.86060494845877,19.064262068838378],[72.85980771823017,19.063317853269677],[72.85896451601256,19.061175196015522],[72.85640852922029,19.06039445349939],[72.85544843704162,19.05986774650994],[72.84835307076449,19.05304606233024],[72.84750803594939,19.052708078233675],[72.84379548030941,19.052155298896043],[72.83977736749509,19.05048930518385],[72.83871114990657,19.05065922274153],[72.83828081747046,19.051269863067397],[72.8376144507709,19.055129737339453],[72.83682488736208,19.05654754310855],[72.83664212482678,19.05752223424801],[72.83729292754961,19.06231086302692],[72.83727852707071,19.068237094752934],[72.83832984894352,19.090730693959355],[72.83955577887019,19.09404025088666],[72.83944204437137,19.100719642198378],[72.83902979105399,19.101507510987087],[72.83733413094713,19.10233097127865],[72.8368871003742,19.10295383024013],[72.83686889262458,19.10777688362205],[72.83733762765738,19.111885806937924],[72.83666416880165,19.113892848237167],[72.83581606289997,19.114939019070704],[72.83458221688392,19.115708124949904],[72.83334269748721,19.116019884297966],[72.83063082633288,19.116112707779916],[72.8298413961787,19.11675499297511],[72.82983668954161,19.121382617404784],[72.83100386311978,19.12560391534081],[72.83095479012661,19.128071399000344]]}},{"type":"Feature","properties":{"layer":"DP_34","label":"Metro corridor (by line)","confidence":"high","METRO_LINE_TYPE":"Metro Line 8"},"geometry":{"type":"LineString","coordinates":[[72.8716164671872,19.02839842026678],[72.87099488749594,19.02429343283173],[72.87062904678774,19.023377059715482],[72.86903006168771,19.021951811283806],[72.86685249230459,19.02093525892287],[72.86539033978205,19.019131797403467],[72.86457596889056,19.016498668746387],[72.86397699990366,19.015428999913546],[72.86302700004572,19.01459900004293],[72.86131499999826,19.00917399991824],[72.85751290894706,19.003597564949867],[72.85547274128177,19.001380140471678],[72.8545949515156,19.000090655060784],[72.85332011031791,18.996374403828085],[72.8535491931177,18.995045072838277],[72.85444389268986,18.993358170172815],[72.8544712770337,18.992397748922272],[72.84873921175202,18.979961131474298],[72.84708698617511,18.978459552597336],[72.84405786513574,18.976705398010836],[72.8422116560448,18.976283435771844],[72.83892093804126,18.976195868636054],[72.83424575800592,18.97562059972441],[72.8303475491685,18.97481954955648],[72.82883701287541,18.97409788822672],[72.82806666011415,18.973066817865632],[72.82781940015524,18.971823879703713],[72.82861995631521,18.966141084653643],[72.82853329279546,18.96087034336072],[72.82925365553439,18.959326323916617],[72.83147032620114,18.957801345821746],[72.83208472515683,18.956784625692443],[72.83234706241844,18.951935846795685],[72.83324782227572,18.949184232659608],[72.83405611264912,18.94543096523439],[72.83500287736676,18.938833101623832],[72.83131720724573,18.94129230006915]]}},{"type":"Feature","properties":{"layer":"DP_34","label":"Metro corridor (by line)","confidence":"high","METRO_LINE_TYPE":"Metro Line 9"},"geometry":{"type":"LineString","coordinates":[[72.85328541153837,18.998152793735724],[72.85063599989842,18.99843300011469],[72.84451500002002,19.001369000025846],[72.84049899994675,19.004835000005876],[72.83317999989367,19.009375000034908],[72.83188600013102,19.011287999948415],[72.83093900006709,19.01370000012913],[72.82928747225105,19.016277574188475]]}},{"type":"Feature","properties":{"layer":"DP_34","label":"Metro corridor (by line)","confidence":"high","METRO_LINE_TYPE":"Metro Line 6"},"geometry":{"type":"MultiLineString","coordinates":[[[72.92342687380008,19.125638303179173],[72.92320815807687,19.12567783114938]],[[72.92320815807687,19.12567783114938],[72.92342687380008,19.125638303179173]],[[72.92320815807687,19.12567783114938],[72.92198941723875,19.126187083784746],[72.92095342055093,19.128274375778034],[72.92039018342469,19.12853972041157],[72.91969113591747,19.128494275977754],[72.91634199986888,19.125057999965136],[72.91171700014256,19.12377800003222],[72.90907899998898,19.123987000025835],[72.90834099994822,19.123088000031135],[72.90815900003776,19.12168899987861],[72.90780599987012,19.12110399991066],[72.90575100010685,19.119960999936204],[72.90336362093298,19.119434048092856],[72.8997000543489,19.12061610734658],[72.89825418222397,19.12337394625985],[72.89730685684506,19.124315943562912],[72.89603158978376,19.124797534855883],[72.89376846781822,19.124995800667428],[72.89124468928645,19.125863008963574],[72.88640226651255,19.129102453033887],[72.88543004954666,19.129327963187606],[72.88049812894086,19.129532560769842],[72.8774068103566,19.130077017643803],[72.8759029920199,19.1306814880315],[72.87488828729768,19.13183171359554],[72.8744837627181,19.134319516789777],[72.87305715772774,19.137068446591417],[72.87163744026935,19.13851519893728],[72.86962702498083,19.139514760003852],[72.86738150453144,19.139754450016937],[72.86509950110647,19.139127517261496],[72.86322308263215,19.138917402532932],[72.86043476784008,19.13948047112219],[72.85780023589615,19.140822500941788],[72.85687519407158,19.140995877652],[72.85311331536987,19.140428402908817],[72.84975123967095,19.139330211316054],[72.84536374112416,19.1398677764179],[72.84340215944009,19.139487355449518],[72.84156323045731,19.140197185907184],[72.8392068241518,19.140540789441523],[72.8364430776675,19.14155048737085],[72.83180224056643,19.141871318735724],[72.82849120179996,19.141645819422724],[72.82520780120659,19.139497880785296],[72.82418746818675,19.139283836932425],[72.82339429416201,19.139547941804956],[72.81963499959663,19.143548716221133]],[[72.9423045695189,19.132172055429937],[72.93962079261357,19.1274971704083],[72.93880125287217,19.12564575233446],[72.93782706562673,19.124837226497753],[72.93714755098426,19.1246988179394],[72.92576862559903,19.125298120656062],[72.92342687380008,19.125638303179173]]]}},{"type":"Feature","properties":{"layer":"DP_34","label":"Metro corridor (by line)","confidence":"high","METRO_LINE_TYPE":"Metro Line 4"},"geometry":{"type":"LineString","coordinates":[[72.8716164671872,19.02839842026678],[72.87195602283005,19.0302715982924],[72.87362543289053,19.035695605521607],[72.87368377073282,19.040164964522656],[72.87454815794804,19.041317332392254],[72.87775857241898,19.042604057842308],[72.87845251343634,19.043226505107903],[72.87884471473501,19.045216837081778],[72.8780908442842,19.04759478175851],[72.87808375623776,19.04856655802509],[72.87846585356625,19.049402711242013],[72.88042176817339,19.05201290860243],[72.8810016311697,19.05254777672366],[72.88324211075076,19.053622017105642],[72.88585855101378,19.055287530677763],[72.89174584836803,19.05987548206652],[72.89903101923264,19.064939450426092],[72.89940738408482,19.06545207001677],[72.90129414674928,19.070661447274283],[72.90298882684921,19.073798174844125],[72.90369608416228,19.074233551084944],[72.90660952480735,19.074486928093375],[72.90787393280722,19.075224444782346],[72.90950889904724,19.07713080731598],[72.91128513343953,19.08059830815946],[72.91840900272696,19.088123910859494],[72.9179278473851,19.092781272395488],[72.91738211273602,19.093853728739223],[72.91576519341476,19.09593070885472],[72.91562603298475,19.096782031730964],[72.9193760728362,19.10164859913387],[72.92483456164727,19.109425338001387],[72.9259160375089,19.11184413550941],[72.92612017044843,19.116555150480718],[72.92527575554863,19.123444693575898],[72.92527114265839,19.128788532704217],[72.92860681536541,19.13503300908469],[72.92937128399653,19.136040434940977],[72.9319308893692,19.141363300228218],[72.93781318309844,19.148431603004678],[72.93748700108927,19.155411741453108],[72.93774780544605,19.164658549882613],[72.94076796042656,19.17190524723003],[72.94107685421113,19.173919968660538],[72.94318130168037,19.177160508410743],[72.94514930363073,19.17875473790525],[72.94673194779061,19.18164506868879],[72.94804101555225,19.183044423643018],[72.95329969543371,19.183710120740322],[72.9558691367837,19.185514289269285],[72.9602090156807,19.186349785420376],[72.96303850533506,19.188164614172013],[72.96324416038327,19.18887449563655],[72.96222618911527,19.1962766102052],[72.9622807905673,19.197157317605438],[72.96320623762988,19.19936314423976],[72.9770562539744,19.21307652963141],[72.97788765660887,19.217512498336898],[72.9775710525167,19.220300780515856],[72.9777017138229,19.221404007139395],[72.97572796145224,19.240078804497873],[72.97606711894085,19.24351128362992],[72.97597565323086,19.246659884857138],[72.97287841564919,19.25187355720182],[72.96651015220804,19.267706151033586],[72.96505518214299,19.270464598992042],[72.96437192450776,19.271308775445963],[72.96367574767032,19.27137607260208],[72.96271325350209,19.271106185135693],[72.96183907294383,19.27053537666069],[72.96012027382275,19.268250658674642]]}},{"type":"Feature","properties":{"layer":"DP_34","label":"Metro corridor (by line)","confidence":"high","METRO_LINE_TYPE":"Metro Line 1"},"geometry":{"type":"LineString","coordinates":[[72.9079896926159,19.08593569149087],[72.90792812295119,19.088844538489756],[72.90772789471107,19.090537889549893],[72.90746881231904,19.09096394089572],[72.90685221436645,19.09125156685687],[72.90480055995964,19.091225532022456],[72.90290569475202,19.09196746410752],[72.90108544797965,19.092999523774683],[72.89902574239086,19.093796543821437],[72.89391461273443,19.09700793189997],[72.89288711035597,19.098008913904902],[72.89070373991119,19.10138105842147],[72.88637935773247,19.10455226145909],[72.88450373377759,19.10670040505468],[72.88383178871148,19.107173730435537],[72.88098770104936,19.107617784135005],[72.8728319300229,19.110599454501184],[72.86475102304021,19.11282135402551],[72.86096354318352,19.114638880164758],[72.85734787422494,19.115282105672964],[72.84618550233655,19.122036768332045],[72.84226987033614,19.12400931508826],[72.84123904219892,19.125621966818645],[72.8401974723193,19.126254569468028],[72.83663111990847,19.127099863825407],[72.83444730048146,19.127310431222497],[72.82003987590097,19.13055354481542],[72.81918083350591,19.13047648448175],[72.81828923098668,19.130073103689355]]}},{"type":"Feature","properties":{"layer":"DP_34","label":"Metro corridor (by line)","confidence":"high","METRO_LINE_TYPE":"Metro Car Depot"},"geometry":{"type":"LineString","coordinates":[[72.82357541187956,19.129767346501524],[72.82574572352758,19.129312879564427],[72.82659843691287,19.12935013793238],[72.82714658033508,19.130090056587353],[72.82686258756557,19.131670610365294],[72.82734533647226,19.13209980022294],[72.82839021282403,19.13206336106412],[72.82898248962466,19.131334013320455],[72.82841845123934,19.128972700817222]]}},{"type":"Feature","properties":{"layer":"DP_34","label":"Metro corridor (by line)","confidence":"high","METRO_LINE_TYPE":"Metro Car Depot"},"geometry":{"type":"LineString","coordinates":[[72.82839021282403,19.13206336106412],[72.83037081643454,19.13177071168054]]}},{"type":"Feature","properties":{"layer":"DP_34","label":"Metro corridor (by line)","confidence":"high","METRO_LINE_TYPE":"Metro Car Depot"},"geometry":{"type":"LineString","coordinates":[[72.82839021282403,19.13206336106412],[72.8288277785014,19.13175872171966],[72.82913162641708,19.131116974544106],[72.8287436902903,19.12890919687032]]}},{"type":"Feature","properties":{"layer":"DP_34","label":"Metro corridor (by line)","confidence":"high","METRO_LINE_TYPE":"Metro Car Depot"},"geometry":{"type":"LineString","coordinates":[[72.82839021282403,19.13206336106412],[72.82906930705451,19.13164564483535],[72.82934563365548,19.131111829735456],[72.82895305638577,19.12886587107643]]}},{"type":"Feature","properties":{"layer":"DP_34","label":"Metro corridor (by line)","confidence":"high","METRO_LINE_TYPE":"Metro Car Depot"},"geometry":{"type":"LineString","coordinates":[[72.82839021282403,19.13206336106412],[72.82912964898478,19.131670106071404],[72.829498875402,19.131068692428844],[72.82911796058124,19.128844919400844]]}},{"type":"Feature","properties":{"layer":"DP_34","label":"Metro corridor (by line)","confidence":"high","METRO_LINE_TYPE":"Metro Car Depot"},"geometry":{"type":"LineString","coordinates":[[72.828414734244,19.13205984149194],[72.8303442537332,19.131651989183936]]}},{"type":"Feature","properties":{"layer":"DP_34","label":"Metro corridor (by line)","confidence":"high","METRO_LINE_TYPE":"Metro Car Depot"},"geometry":{"type":"LineString","coordinates":[[72.82866304691582,19.1319856881073],[72.83032070201364,19.13155295969021]]}},{"type":"Feature","properties":{"layer":"DP_34","label":"Metro corridor (by line)","confidence":"high","METRO_LINE_TYPE":"Metro Car Depot"},"geometry":{"type":"LineString","coordinates":[[72.82897494602184,19.13184431689998],[72.83030169484869,19.1314518368545]]}},{"type":"Feature","properties":{"layer":"DP_34","label":"Metro corridor (by line)","confidence":"high"},"geometry":{"type":"LineString","coordinates":[[72.87563753606088,19.048550889827933],[72.87656127291696,19.048299239278347],[72.87707473188533,19.047873786731852],[72.87857639827261,19.045070883218326],[72.87876039228857,19.04426943788281]]}},{"type":"Feature","properties":{"layer":"DP_34","label":"Metro corridor (by line)","confidence":"high"},"geometry":{"type":"LineString","coordinates":[[72.82856260584387,18.922248828838736],[72.83329281476622,18.92585973023114],[72.83416642223638,18.928259129354334],[72.83558845574949,18.930374354462828],[72.83590167058432,18.93355100537729],[72.83500287736676,18.938833101623832]]}}]}