{"type":"FeatureCollection","features":[{"type":"Feature","properties":{"layer":"DP_66","label":"Coastal / CRZ buffer","confidence":"medium","FID_OUTER_SEA":4,"NAME":"B","BUFF_DIST":100,"ORIG_FID":15},"geometry":{"type":"Polygon","coordinates":[[[72.78356390054066,19.261161835934203],[72.78298975335989,19.26007730784498],[72.78168803021819,19.259766711026447],[72.78280736813295,19.255437594591655],[72.78311559942286,19.25326807567568],[72.7830892207939,19.250288927063146],[72.78255481320683,19.247812850996205],[72.7810088851116,19.243047315501826],[72.7811555399158,19.24046572502556],[72.78027136998571,19.238564176932307],[72.77947495063394,19.23809705633231],[72.77908225304147,19.236978919791742],[72.77968143303191,19.23547680687471],[72.7806410165372,19.231011439904783],[72.77785672982999,19.226583153219913],[72.77658080564868,19.225948274660343],[72.77633295148993,19.224945148869892],[72.77639018710754,19.223560802175793],[72.77677179785157,19.22299001809905],[72.77677589813543,19.222150443515197],[72.77769257867274,19.221681972479892],[72.77830061080202,19.220432178914145],[72.77906882250814,19.220446893296955],[72.7790687999133,19.219153402799922],[72.77976524232747,19.218094429635173],[72.78065025601265,19.217535875025717],[72.78147258689707,19.2152687108153],[72.78145387456364,19.212676218198542],[72.78102292134079,19.21129862234296],[72.7804440169078,19.210580007278004],[72.78008256025458,19.206417837622936],[72.78051378913673,19.206179083408514],[72.781214187128,19.206614527166845],[72.7820278555661,19.20676605030767],[72.78375602803305,19.206217814397302],[72.78503571834209,19.205066525623806],[72.78570303131195,19.203787720046577],[72.78574497307929,19.20200376613346],[72.78498480420618,19.20077634300929],[72.78332397464175,19.20072194751013],[72.78265258797573,19.199892036736255],[72.78241084859009,19.19733624762701],[72.78157167567869,19.194766023208285],[72.78234642980371,19.19386633416506],[72.78311405270694,19.193817062750124],[72.78393674578423,19.193234953798697],[72.78762434567344,19.194001667128273],[72.7894578476609,19.193106420417656],[72.7905114697105,19.19317767588252],[72.79128081566637,19.193512251946007],[72.79295349443052,19.195586607301006],[72.79640267532434,19.196165982869907],[72.7965599633687,19.194879795452838],[72.79655349418107,19.19362355578766],[72.79538596412551,19.19072255271199],[72.79621700970998,19.18753704191509],[72.7957399379104,19.183300024347883],[72.7960619162455,19.180020239042392],[72.79315553427017,19.171853304095126],[72.79254230061375,19.17140183792313],[72.79051638319312,19.171010409231744],[72.78866329924664,19.169854049829812],[72.78735910530084,19.16769054988903],[72.78612693742623,19.166543540879555],[72.7848840949549,19.166321095320598],[72.7840059107675,19.166983402791242],[72.78185132328855,19.16712927199306],[72.78112050289553,19.165203817865798],[72.7812619853666,19.164068959967313],[72.78319038324545,19.162080317392448],[72.78374659527675,19.160671778176656],[72.78379448247333,19.15979569880408],[72.78356240213185,19.15947849605586],[72.78233261133536,19.159006163631084],[72.78171600356413,19.157897444048736],[72.78265139062944,19.157944038620577],[72.78377343321877,19.15736459079647],[72.78426475033942,19.156194286341538],[72.78447426603687,19.154393961861818],[72.78621134503207,19.153370109579026],[72.78752947567294,19.152009398099988],[72.78843401614749,19.15046720957286],[72.7890627831017,19.148685278622324],[72.78898215162006,19.14556747815778],[72.78767617865901,19.142120857147862],[72.78819884663609,19.141617677990254],[72.78813055127154,19.140263868279128],[72.78855224867614,19.139278487802905],[72.78830149690778,19.13484133982433],[72.78775544601729,19.133563871585334],[72.78765595225688,19.13266407561347],[72.78803057546368,19.130426529368936],[72.78718985407608,19.13027439952774],[72.78720274030373,19.130063327007765],[72.78814159581354,19.129875915095027],[72.78962169744487,19.131131314058504],[72.79181366416309,19.131337405752443],[72.79298860398372,19.13070216553307],[72.79516423189362,19.131616674800725],[72.79485111329359,19.132918434952995],[72.80519555135335,19.13882952889461],[72.81004483414252,19.133714658881264],[72.81139121241603,19.13169010184931],[72.81345604409908,19.129303432369476],[72.81910770594939,19.1199205021257],[72.82139150864909,19.114818632447943],[72.82307133961336,19.108980656459902],[72.82415475709308,19.102897047521953],[72.82625930956357,19.096428025842496],[72.826493270817,19.0927737082518],[72.82654200559458,19.090268295841696],[72.8261757624988,19.088485896652394],[72.82413692217935,19.084039559714217],[72.82389973020658,19.083687658408643],[72.82339019759748,19.083688034609356],[72.8231138055548,19.083097433118972],[72.82339985084742,19.082912318712467],[72.82270938739275,19.08210102380883],[72.82337969620025,19.07932635165752],[72.82242189508914,19.07854081911799],[72.82138850298831,19.076859946024037],[72.82186920523665,19.07483186022146],[72.82127428205875,19.07321722743422],[72.8214429259433,19.073223339281682],[72.82178282515493,19.07107348762233],[72.82238024525205,19.069575190774906],[72.82212390227168,19.0676748883056],[72.82275485647611,19.065356041324353],[72.8227357473741,19.064575739002514],[72.8219590461125,19.06235170667983],[72.82160805843365,19.062366790026008],[72.82122466747387,19.060253541710615],[72.82052646447984,19.058981027685345],[72.82117662027647,19.058644671156888],[72.82125397539363,19.058127267187505],[72.8229353905271,19.05713950564478],[72.82372003225515,19.05604344043278],[72.82323661027777,19.054762441796232],[72.82247870528772,19.05421934458136],[72.82190244056041,19.053427318386447],[72.82113046115013,19.05051247109703],[72.81864041301809,19.045565883590896],[72.8174007353236,19.044147140413433],[72.81718296075952,19.043051492530854],[72.81809980037144,19.042321630701007],[72.81807541130226,19.041682896556516],[72.81840143305877,19.04179283312683],[72.81888386610797,19.04107495064844],[72.81924165370258,19.04085908694873],[72.8202781639871,19.041020117089804],[72.82485999446912,19.042534484559955],[72.82754342007937,19.044207204982023],[72.82930659906394,19.04491544628297],[72.82976516327501,19.045519625603582],[72.82975824274253,19.04605179866006],[72.83234398279666,19.04859771767308],[72.83371830371425,19.049394528826877],[72.83742880732161,19.04951860823957],[72.8380047257917,19.048918813004196],[72.83803484552112,19.048292534129658],[72.83762650451185,19.04801178727023],[72.8365440118535,19.04790566217348],[72.83624691585523,19.047436454628663],[72.83642624070274,19.04619662608007],[72.83727023537136,19.044055315268324],[72.83741939937622,19.041533917919637],[72.83792361876532,19.038723318096192],[72.8380237414947,19.037277080421006],[72.83737786425867,19.033172623108673],[72.83469441629573,19.026947254247855],[72.83325034104965,19.024829078104332],[72.83097885430217,19.022502157864892],[72.82830168188279,19.020273420727218],[72.82432740064311,19.017998242447398],[72.82283943771658,19.01759104262267],[72.82090435076057,19.01781763162776],[72.82060208385914,19.0183960523513],[72.81971384565907,19.01864155465648],[72.81892692698985,19.019600151522777],[72.8186268395064,19.021995147429713],[72.81923950859785,19.023079060564758],[72.81888531477429,19.022876242904747],[72.81737187347215,19.02398536647727],[72.81640547621423,19.02536012552634],[72.81464088092432,19.02687864636008],[72.81403359041794,19.026677569316746],[72.81531881427941,19.024081553758887],[72.81582016669174,19.016262433962822],[72.81645511942915,19.01480772349296],[72.81671936518312,19.013181123303195],[72.81631629587943,19.011791513796457],[72.81442613508224,19.008491833635773],[72.81324427004012,19.004894913824405],[72.81139142015759,19.00155833820997],[72.81135158832366,18.99835665609804],[72.81186491510415,18.996336281093622],[72.81185288618404,18.993181376593142],[72.81105389894505,18.98986683577324],[72.80897096007722,18.98463690892318],[72.80199491282424,18.973091663576067],[72.80126743520213,18.970983185789695],[72.80023020809078,18.965290073629248],[72.79940578930841,18.962510356411435],[72.79374822012491,18.953303965553754],[72.79226569829166,18.95021993419216],[72.79189110689333,18.94894488978834],[72.79169715982496,18.948905795645448],[72.79204726090849,18.945701724926924],[72.79281377466312,18.945034907270472],[72.79360852716583,18.943830210437696],[72.79324534675231,18.942738585650194],[72.79338498896648,18.941945376848707],[72.79245719406173,18.940080680977218],[72.79277515352061,18.939509573089172],[72.79352982503026,18.93927005310676],[72.79477598221048,18.93969649543261],[72.79430052827027,18.939654414203137],[72.79516542967663,18.941634306681514],[72.79545504003994,18.943399941202475],[72.79684649348661,18.94542064588165],[72.79768174339108,18.946126900338268],[72.7980464899287,18.947425179813422],[72.79913453280588,18.947403779481323],[72.79941425924498,18.94784020929387],[72.80035832528463,18.948275166207495],[72.80070607852112,18.948143237916995],[72.80137908789798,18.948332415958436],[72.80225878671676,18.948880392458097],[72.80309153017855,18.9500359575595],[72.80417562382365,18.95074546827332],[72.80400398186198,18.950990333748237],[72.80437775038443,18.951367994632275],[72.80471310746859,18.951225720760828],[72.8050537083429,18.951817092542655],[72.80595264456952,18.952275626571478],[72.8062671324732,18.952708143763005],[72.80672557535172,18.95266107613274],[72.80679466888971,18.954278552676616],[72.8074690274499,18.9542134608861],[72.80808180796106,18.954957149366212],[72.80913393742735,18.954932867412236],[72.81192664586288,18.9539174761995],[72.8155204495648,18.952176433270868],[72.81770439538606,18.95083242662033],[72.82171657975366,18.94572550671943],[72.8234513032555,18.94180792084605],[72.82397803234736,18.938431582390322],[72.82390067684901,18.936072240570702],[72.8233965923116,18.93359724276126],[72.82199390192842,18.93033892348486],[72.81946134473174,18.92710057636029],[72.81103157365197,18.918211674181304],[72.80751743852066,18.91402744567118],[72.80484635506687,18.910211558691785],[72.80409626192863,18.908415390681437],[72.8035386316934,18.90508853506474],[72.80405186760821,18.900991715468848],[72.80477425073445,18.898747191383112],[72.80697266696384,18.89589701938103],[72.80825363816648,18.894761742284533],[72.80963485591711,18.893970957504315],[72.8108995549018,18.89515938546754],[72.81236431914537,18.894916384815165],[72.8133727984364,18.89537038212854],[72.8147180976894,18.897537092628276],[72.81726953633763,18.90060461511831],[72.81715061178758,18.901314964096912],[72.81739779044284,18.902138029862623],[72.81875371704443,18.902285577043884],[72.8174255637046,18.902319816576835],[72.81793480481983,18.902744197290193],[72.81745038945468,18.90299928498098],[72.81784408433147,18.904318056702568],[72.8173909337878,18.905376223930432],[72.81767100556564,18.906046289456935],[72.81748907764832,18.906535707205627],[72.81787375912674,18.907061511584143],[72.81860287300253,18.906445965028784],[72.8194503070835,18.90730479178042],[72.81964780883928,18.90715929207925],[72.82221720223772,18.910171909185202],[72.82492914470882,18.907390604411955],[72.82682977373418,18.910382118811977],[72.82692627283424,18.91119987604261],[72.82943449513444,18.912918130971278],[72.83120352728974,18.914971890878487],[72.8298416778329,18.91602482623214],[72.83149605862504,18.917408131831294],[72.83186360774889,18.917372103440666],[72.83202068442021,18.918024060437542],[72.83277812353529,18.918065257034392],[72.8328192899664,18.91821365021886],[72.83208894929447,18.918373174518166],[72.833663792541,18.921824686294954],[72.83411633557024,18.92192676146684],[72.83444945122044,18.921654180973366],[72.8348827005209,18.921928731325163],[72.8346631168348,18.922267656457773],[72.83494540122783,18.92288007589192],[72.83426448976294,18.923146125122553],[72.83487095386091,18.923599961528637],[72.83809842458214,18.920418305517334],[72.83951834531301,18.9202525065902],[72.84031752845205,18.92068117802397],[72.8446364596929,18.925280646056564],[72.84469263570932,18.926129156145684],[72.84444417718852,18.926080685791977],[72.84432060184773,18.925258743338475],[72.8404252058125,18.92124766832073],[72.83788890868485,18.926465951755223],[72.84038497367392,18.9276303108015],[72.83839706925103,18.926782914735927],[72.83793743946136,18.927718918792685],[72.8368648406652,18.9273020044512],[72.83670832017827,18.927823855568636],[72.83623699891062,18.928126717590718],[72.83720503306549,18.928778578561964],[72.83694133488324,18.929391331291793],[72.83752810798876,18.928976886775594],[72.84027015435046,18.93093363275324],[72.84001174286297,18.93276070177793],[72.84057140684322,18.93320674024601],[72.8412601599929,18.93337423343859],[72.84226651541113,18.93311194451901],[72.84299133626325,18.92893568915416],[72.84424254508988,18.929005106070903],[72.84296880717827,18.93553738610381],[72.84345331579715,18.93538502775814],[72.84368149166897,18.93560787263299],[72.84673065351417,18.947604643574905],[72.8465047864715,18.950439742081585],[72.84618545200732,18.950569723074455],[72.84667254409032,18.951992924525715],[72.84637442080083,18.95220647538117],[72.84665065682105,18.9524939595806],[72.84691166011214,18.953579796961062],[72.84671174262508,18.95409941012248],[72.84713217055013,18.954142656073557],[72.8467530251479,18.954265436988074],[72.84719656110909,18.95470934200559],[72.84795472407988,18.957772014127652],[72.8494351846508,18.957301625232375],[72.84910496112481,18.955962433708073],[72.84951838283868,18.9558702755301],[72.84980619381504,18.95726626698419],[72.85082383005948,18.957736415304765],[72.85106082058743,18.958761617779444],[72.85078237761255,18.95880245892576],[72.85058074510394,18.957909880550233],[72.849605580836,18.95737852416291],[72.84799996634683,18.957959028457797],[72.85002340595966,18.965872887930033],[72.84977868740101,18.966037820696993],[72.84982710483948,18.96633665185428],[72.8504149156547,18.96634064699657],[72.85038226090319,18.96716171183755],[72.85118609662098,18.967018740905843],[72.85144205452667,18.967292903780343],[72.85141102294718,18.967834530119106],[72.85229654777638,18.967807685263363],[72.85215308627185,18.96871534795202],[72.85136014044522,18.968759649283236],[72.85113781371763,18.969263250240942],[72.8507141480198,18.969289880127498],[72.85297908338325,18.969291786409254],[72.85300062201244,18.969719606412124],[72.8490842669394,18.97027210700387],[72.84947444544073,18.97096098561341],[72.84925002450167,18.970979991501963],[72.84934863566968,18.97222010903877],[72.84977313171534,18.972191473039295],[72.84983934970515,18.972426640304157],[72.84881535870713,18.97269435534916],[72.84890119861318,18.97335618583041],[72.85330441014861,18.972541211889496],[72.85328995112737,18.97219765567925],[72.853567229223,18.972052556293722],[72.85413019798109,18.973773741738633],[72.84977265250963,18.974716422209983],[72.84988165814985,18.975188480814992],[72.8508779106867,18.975007062199378],[72.85121608423958,18.97544722199445],[72.8554068346369,18.97455198882852],[72.85590483041739,18.97537801884954],[72.85589971981423,18.975659560968896],[72.85146386731553,18.97655469834092],[72.85121907462477,18.97614796197461],[72.84942428908823,18.976511883583697],[72.84955071466145,18.977524405601745],[72.84981387442741,18.977769248724375],[72.85527646017347,18.97670484269465],[72.85566339580168,18.97779150554466],[72.85004932798917,18.9789562686586],[72.8502488787577,18.979952100883484],[72.85002527032127,18.980015604739506],[72.85760220360274,18.97838407568556],[72.86118429295882,18.981623097888857],[72.85647880024271,18.992753846770366],[72.85613437206031,18.994011937139657],[72.86067539020513,18.995868589136904],[72.8619891728381,18.995284656846465],[72.86207739837602,18.995481320841666],[72.86093742364638,18.995992463886694],[72.85995803520905,18.998353769853786],[72.86021162435296,18.99850824024248],[72.86004048615672,18.999078603438377],[72.86061010290726,19.00057131481767],[72.86080599843672,19.000538391741927],[72.86102800217868,19.002165868289914],[72.86233892690372,19.001939335491812],[72.86239912402544,19.002292207641336],[72.8613434701175,19.00246621701079],[72.86139732006261,19.002970359543095],[72.86224018997687,19.003027914378364],[72.86153555543441,19.003082670803728],[72.86979466388485,19.00766410058357],[72.8694192245615,19.008674235405483],[72.87290986120237,19.009259532074836],[72.87409092882703,19.01022832705331],[72.87824847356639,19.012041353530325],[72.87994321049632,19.013352889390234],[72.88085217408312,19.013677359584733],[72.88433829070826,19.01342879284991],[72.88532154844481,19.008614264160297],[72.88556208106836,19.005898266228307],[72.88584782530344,19.00528905030645],[72.88645965630577,19.001107275517878],[72.88705313800406,18.992442797677224],[72.8874089185094,18.991728235084263],[72.88790436888334,18.99172211147561],[72.88913911347865,18.992996746272976],[72.89128293540176,18.994329353000968],[72.89379984893627,18.994584014118022],[72.89581922755244,18.9952084271977],[72.9003453439726,18.99521212800057],[72.90444525364722,18.99398893061541],[72.9041919184532,18.99311293737799],[72.90020289230888,18.994315095074594],[72.89598394098348,18.994316972767518],[72.89390261460588,18.99368609968325],[72.89165801072437,18.9934920388859],[72.88978510347832,18.992330981066992],[72.88835702309144,18.99092814972476],[72.88751168469254,18.990748228157873],[72.8868309131859,18.99101165961477],[72.8861075534162,18.992360904429102],[72.88552008644497,19.000968770513886],[72.8835107267823,19.012613684612223],[72.88142478247765,19.012832737967134],[72.88037100128928,19.012540717840217],[72.87881553341049,19.011316865777022],[72.87457894020454,19.009451560620004],[72.87329826995465,19.008435343230687],[72.87070524633646,19.00792026313927],[72.87066984650072,19.00731373647597],[72.87037437369194,19.00694889645362],[72.86330598833311,19.003056232143404],[72.86320824059372,19.00157403079131],[72.86276885949229,19.00113403780954],[72.86192049343454,19.00106481020667],[72.86108806146017,18.99893296086878],[72.86107312992,18.998128757502776],[72.86163543856654,18.996769387575803],[72.8629333098486,18.99587213219388],[72.86302523933544,18.995424450790114],[72.86278797185076,18.99479579144721],[72.86197566194895,18.994381792012003],[72.86070694278678,18.994857633585227],[72.8573238452842,18.99361518835533],[72.85759001688723,18.9925538083055],[72.86206537700079,18.981976580148178],[72.86203442333615,18.98121963377533],[72.85813729451054,18.97757779289067],[72.85660464821474,18.977673414833983],[72.85635042549548,18.97656945431132],[72.85681531360031,18.975899202716707],[72.85680344160907,18.975086633567397],[72.85605041049476,18.973872539547422],[72.8550765710037,18.973702972076858],[72.85434557108374,18.971384516046136],[72.85379064081198,18.971132275279555],[72.85309534750296,18.971226107821483],[72.85241710602303,18.971732799170386],[72.85074783285687,18.972162584214146],[72.85028467651331,18.971431496590473],[72.85041929590564,18.97104716839926],[72.85356292527729,18.970446949909725],[72.85393179072209,18.969897263834547],[72.85392734197059,18.969248571900074],[72.85369082223784,18.968694225961965],[72.8532949797834,18.968440717020183],[72.85302306681378,18.96722601626233],[72.85229923890124,18.966905337904514],[72.85099076612717,18.965623272627656],[72.84911501028641,18.95852210069392],[72.84974161716076,18.958493476874036],[72.84997106241342,18.959272194430095],[72.85045493573263,18.95964991905348],[72.85151416151686,18.95955458117858],[72.8520097212715,18.95879856474239],[72.85170357516328,18.957396212137933],[72.85141728139546,18.957031476636786],[72.85066350227223,18.956732454005945],[72.85040639897898,18.955550030446283],[72.85000055589296,18.955092338117975],[72.84938090510602,18.95497675746015],[72.84834783548396,18.955418036616138],[72.84761762127128,18.951733080528438],[72.84726535050487,18.950980110907505],[72.84776188005317,18.94833406906036],[72.84766604385202,18.947451032504787],[72.84457712476782,18.935291429243943],[72.84410816314319,18.934591611798183],[72.84514249884295,18.928717233203773],[72.84474317774766,18.928238296800963],[72.84423462607876,18.928080092794268],[72.84286072200163,18.928041509752926],[72.84229705270415,18.928319385936977],[72.84142784724659,18.932412753770787],[72.84125575870449,18.932450592378423],[72.84103121167969,18.932226616713397],[72.84126086043524,18.93109376347737],[72.8410749634264,18.930454855052236],[72.83842987756863,18.928490173134183],[72.83885039100709,18.927993063020192],[72.84023252029478,18.928593910535582],[72.84078813930755,18.92850799656417],[72.84125754985368,18.928055693565533],[72.84133938274603,18.92753999285595],[72.84100450432757,18.92694607145718],[72.83910686675141,18.926019148395675],[72.84060410874466,18.92274189868054],[72.84352990609516,18.925774324150392],[72.84355752316473,18.92640369486823],[72.84410133905145,18.926922555433276],[72.8448241195134,18.927023428884393],[72.84548647960432,18.926624641139636],[72.84571998794009,18.925924905155362],[72.84552005461367,18.924950939260224],[72.840958226073,18.920014852422558],[72.839862425441,18.91941075767656],[72.83841827442127,18.919388658114983],[72.83765558530743,18.91961946042333],[72.83567471320873,18.921421683917895],[72.83496997696209,18.920854697187252],[72.83417218568977,18.920661553418306],[72.83337354478876,18.918950393413205],[72.83376036358645,18.918389866696796],[72.83367400303636,18.917691266209587],[72.83233035273774,18.916581343770456],[72.8314026930801,18.916126341164556],[72.83217707040612,18.915299323033206],[72.83204995226119,18.9145313758967],[72.8300206066913,18.912204374261282],[72.82773942457358,18.91063906439449],[72.82770582062426,18.91003478415245],[72.82574096942128,18.90674109086983],[72.82503085623824,18.90643510278257],[72.82441185432417,18.906633403382692],[72.82227896547867,18.908908619750612],[72.82035090594059,18.906552699047065],[72.81852961381038,18.90545160150468],[72.8184098280361,18.90513001837181],[72.81879077555439,18.904381064303923],[72.81862275887298,18.90361912382826],[72.81958814471867,18.902799864213033],[72.81966348468238,18.901956435488856],[72.81910096426769,18.9014398189217],[72.81818593756081,18.9012948234103],[72.8180929944038,18.90015578214918],[72.81490262086972,18.896219485263696],[72.8142552031216,18.894980503450096],[72.81357311928069,18.89438098404265],[72.81264331035445,18.894029677700555],[72.81132142240222,18.894237411047488],[72.81045286018488,18.89327431939101],[72.8098162473198,18.893054729900033],[72.80873597969455,18.89330334784096],[72.80689124836368,18.894702167103024],[72.80503267046339,18.896690972062622],[72.80379131303675,18.898603086781034],[72.80262972510842,18.903560541825453],[72.80265595319324,18.906271656719515],[72.80306069580789,18.90827855553768],[72.8039785025406,18.910576960379828],[72.8067604988405,18.914572219444807],[72.81031360126883,18.9188023193497],[72.81873586063888,18.927683753932833],[72.8211144258708,18.930684569387708],[72.82248759954918,18.93385922528142],[72.82295823521379,18.936179362744728],[72.82298224228873,18.939036036087106],[72.82234236854794,18.942189317838196],[72.82067004170388,18.94562345890226],[72.81712542332971,18.950087470848263],[72.81504608631752,18.951392729983],[72.81153826732445,18.953092117203724],[72.80850585551771,18.954032587104738],[72.80815955229522,18.952654786236938],[72.80626857111146,18.951424415711116],[72.8037737624354,18.949293134522993],[72.8028782152023,18.948196034204827],[72.80191586655373,18.9475684954517],[72.79879603690432,18.946442014066086],[72.79844144786753,18.945585385242616],[72.79634719315622,18.94303506517264],[72.79612234755609,18.941493138919434],[72.79559314527788,18.940234638349068],[72.7957249860882,18.93972475891776],[72.79552468719199,18.939141383288447],[72.7940708725679,18.938464877515507],[72.79307179637506,18.93832563773101],[72.79197435528556,18.93896534071427],[72.79153464241564,18.939784765049712],[72.79152750089604,18.94031100980858],[72.79238209043089,18.94196251662297],[72.79230937493034,18.94288861489529],[72.79252781385007,18.943558763639377],[72.7920683216923,18.944472238651564],[72.7911812828771,18.94533196348995],[72.79062595445386,18.94905985880817],[72.79357233248682,18.954895538208014],[72.79847857390357,18.96276225227934],[72.79930138026639,18.96547682313851],[72.80040089460458,18.971436021168547],[72.80110297285715,18.973401310265505],[72.80813073145777,18.985057590807433],[72.81014308132225,18.99012411279636],[72.8109046283038,18.99328127010353],[72.81091647048451,18.996262323370473],[72.81032072737105,18.99811352384431],[72.81045087524518,19.00170433417936],[72.81237656591279,19.005261902717944],[72.81354638135637,19.008831697924073],[72.81547372427266,19.012209139719168],[72.81577127036658,19.013233255096196],[72.81556601939617,19.014456724771925],[72.81488562982352,19.016090970403933],[72.8144121441107,19.023770016452396],[72.81310595138223,19.026483520587412],[72.81321221763797,19.02713047614387],[72.81415243644933,19.027723858281743],[72.8151423835537,19.027645644866087],[72.81707066777598,19.02600471229438],[72.81806011885732,19.024621190403973],[72.81891731243743,19.023992998692055],[72.81994684225958,19.023681691068898],[72.82019625016473,19.022782748766524],[72.81962460145715,19.02191926016659],[72.81987012422805,19.01980514357177],[72.8201308951128,19.019460141290878],[72.82108613649748,19.01917997246603],[72.82162047331178,19.018615401312854],[72.82257284724716,19.018481484338096],[72.82389655774115,19.018803406084544],[72.82746221539782,19.020822899334295],[72.82899910258462,19.0220173808809],[72.83220196399789,19.025066237466454],[72.83331827573387,19.026543257053287],[72.83473394257898,19.02909889974104],[72.83639125914785,19.03315848596692],[72.83706953788389,19.037280821361843],[72.83697583001106,19.03866064562584],[72.83647727165415,19.041419743752165],[72.83633840976285,19.04384610754368],[72.8352815719753,19.046865779301424],[72.83536175547331,19.047763886845864],[72.83584776101924,19.04851997021104],[72.83400887812232,19.0485113275786],[72.8329863994562,19.047914105933824],[72.83071300889594,19.045672948480956],[72.83039340246745,19.044729346853998],[72.82972991778594,19.044106948131837],[72.8280260606945,19.043428100471857],[72.82519861423545,19.041690663889547],[72.82067113131738,19.040188694450073],[72.81967303362946,19.039946211879727],[72.81871475525097,19.040107651463973],[72.81733465519034,19.041117422945735],[72.81708424747073,19.04196649660495],[72.81627443715094,19.042761698500684],[72.81653158891035,19.04451125772299],[72.8178084055596,19.04600725959265],[72.82021715910454,19.05077602736389],[72.8210351596,19.053795550037485],[72.82253461536992,19.05554259932463],[72.82244879082874,19.05630168998358],[72.82059294692979,19.057478793560783],[72.8195770880922,19.058948226535655],[72.82029676768371,19.06051497925239],[72.82071572776385,19.062677013614692],[72.8212634469538,19.063207452428465],[72.82178931813449,19.064726792221958],[72.82118729689483,19.067524382155252],[72.82144043062038,19.069359459987194],[72.82033968939406,19.073054858368643],[72.82033503830992,19.07404700134626],[72.8209177804955,19.074940679738784],[72.82043863707557,19.076848714659228],[72.82068575111953,19.0777344344658],[72.82222063999669,19.07965653101575],[72.82179087634573,19.082393547133627],[72.822193092926,19.082865665840703],[72.8225400929647,19.0840919887764],[72.82342639468499,19.08473181256816],[72.8244142424251,19.086768506549582],[72.82524122937983,19.088649831119966],[72.82559028272267,19.090350829114797],[72.82532283802641,19.0962352966286],[72.82323694304382,19.102663638672507],[72.82275905762245,19.105951496232255],[72.82104711985897,19.11281908964206],[72.81825377192499,19.119522877288517],[72.81229529192991,19.129318417867704],[72.81067455578733,19.131097023949977],[72.80936162186838,19.133072043286283],[72.80501688950274,19.13767254398593],[72.79614720538017,19.132618238272237],[72.79595213128296,19.13111202781595],[72.79439751110819,19.13025515672628],[72.79303229437329,19.1297999721608],[72.79161080176301,19.13040840768461],[72.79004570121326,19.13026172128966],[72.78826063906313,19.128979896702255],[72.78673886725349,19.129275434672223],[72.78627618104223,19.12986198191854],[72.78633643744325,19.13067210194267],[72.78695007673886,19.13114771575073],[72.78673653401079,19.13302281539829],[72.78733478002374,19.135007215622355],[72.78756517486637,19.137264397990265],[72.78759878976933,19.13909896196547],[72.78718969742667,19.14013698159638],[72.78724094034752,19.141254315795866],[72.78673242963595,19.142227036135168],[72.78734395329633,19.144285044090964],[72.78794985365288,19.145280198604603],[72.78812597048788,19.148509741841657],[72.78755831245567,19.150115264694502],[72.78674830383339,19.151491815586873],[72.78561552736645,19.15266550958745],[72.78368653219545,19.15388869855745],[72.7830434511979,19.156767498872693],[72.78244224544986,19.15702240707956],[72.78141449440028,19.157041119541333],[72.7808448600392,19.157536417798166],[72.7808648338771,19.158598811539374],[72.78172831296821,19.15970322281592],[72.78277105565446,19.16026772470384],[72.78280317222374,19.160520757339725],[72.78216759911892,19.161860125958036],[72.7804325457116,19.163628015955975],[72.78014409262002,19.164494965434244],[72.7801804475819,19.16533692995565],[72.78078370714871,19.16734578188385],[72.78135200218122,19.167897739518068],[72.78388054228186,19.16795182463818],[72.785018925266,19.16732286961015],[72.78566956199514,19.167382077367396],[72.78656180859043,19.168212661361558],[72.78806174493187,19.17055598345547],[72.79018198933251,19.171855814323276],[72.79232515801526,19.172384481096746],[72.79510479642599,19.180089473879693],[72.79479353500287,19.183384137734567],[72.7952675222776,19.187450876557584],[72.7945314126927,19.18982739131866],[72.79444231190824,19.190831364246108],[72.79558988929813,19.193849763932217],[72.79560567100737,19.19483916652756],[72.79555521446308,19.19517097200587],[72.79347718723449,19.19477930106574],[72.79177935331847,19.19274327777935],[72.7906933631169,19.192291217087362],[72.78976790264336,19.19220708842273],[72.78915876120749,19.19224913796988],[72.78767212195132,19.19304301451428],[72.7849857232302,19.192420157462713],[72.78373007055522,19.192353415308148],[72.7817831622524,19.193138811287],[72.7809478352247,19.193954511234562],[72.78063193757048,19.194629927174816],[72.78065283249177,19.19525608559076],[72.7814640513337,19.1974982163399],[72.78149960421376,19.199309249843683],[72.78176553192826,19.20021674865427],[72.78278356920302,19.201465002801083],[72.78445028110154,19.2016799467808],[72.78480665888702,19.202261573741605],[72.78477839707735,19.203552188334232],[72.78427518308396,19.204515418436948],[72.78326589696692,19.205425788975877],[72.78190399390478,19.2058672745606],[72.7807734828466,19.205310330892193],[72.78010811821873,19.205273976523475],[72.77922745407635,19.206023273460428],[72.77944024182754,19.21040434380115],[72.78050856585773,19.212826496987766],[72.78054285639618,19.215066791467425],[72.77990432226943,19.216939606765813],[72.77889380424111,19.217676955657826],[72.77820066428482,19.218785297460656],[72.77811634037093,19.2195102698179],[72.77756858236827,19.2198556267986],[72.77696218037296,19.221028291846878],[72.77590604437039,19.221785622611705],[72.77582232419026,19.22272555803944],[72.77546254387569,19.223362849625325],[72.7753827482102,19.224914172484766],[72.77582086315421,19.226491202850845],[72.77719276586213,19.227273758472098],[72.77969729191202,19.23127162859821],[72.77813756653069,19.237081440113894],[72.77860751884002,19.238496635391197],[72.7794791108952,19.239097552594384],[72.78022701325244,19.240679622856216],[72.77997634875234,19.24206756358891],[72.78006128390035,19.243122139402583],[72.78163018754715,19.24802391976993],[72.7821403932573,19.25036151145416],[72.78214897814479,19.25328731819846],[72.78073318653571,19.25983060007702],[72.78132754415772,19.260667082116314],[72.78228375994108,19.260773768652946],[72.78338126095547,19.26248907429355],[72.78356810505498,19.263010837963506],[72.78308147761626,19.264520836645413],[72.78336033428994,19.265295039928233],[72.78415754835868,19.26477786264366],[72.78403540149026,19.26430875893739],[72.78452216441303,19.26313543644116],[72.78424712916576,19.26209519942139],[72.78356390054066,19.261161835934203]]]}}]}